CCSDS_OMM_VERS = 2.0
CREATION_DATE  = 
ORIGINATOR     = 

OBJECT_NAME    = STARLINK-35350
OBJECT_ID      = 2025-243L
CENTER_NAME    = EARTH
REF_FRAME      = TEME
TIME_SYSTEM    = UTC
MEAN_ELEMENT_THEORY = SGP/SGP4

EPOCH          = 2025-11-21T04:00:01.998720
MEAN_MOTION    = 15.49253879
ECCENTRICITY   = .0000922
INCLINATION    = 53.1599
RA_OF_ASC_NODE = 30.0147
ARG_OF_PERICENTER = 75.9252
MEAN_ANOMALY   = 111.0017

EPHEMERIS_TYPE = 0
CLASSIFICATION_TYPE = U
NORAD_CAT_ID   = 66187
ELEMENT_SET_NO = 999
REV_AT_EPOCH   = 511
BSTAR          = .14827E-2
MEAN_MOTION_DOT = .82731E-3
MEAN_MOTION_DDOT = 0

CCSDS_OMM_VERS = 2.0
CREATION_DATE  = 
ORIGINATOR     = 

OBJECT_NAME    = STARLINK-35041
OBJECT_ID      = 2025-243M
CENTER_NAME    = EARTH
REF_FRAME      = TEME
TIME_SYSTEM    = UTC
MEAN_ELEMENT_THEORY = SGP/SGP4

EPOCH          = 2025-11-21T04:00:01.998720
MEAN_MOTION    = 15.49255270
ECCENTRICITY   = .0000998
INCLINATION    = 53.1598
RA_OF_ASC_NODE = 29.9988
ARG_OF_PERICENTER = 71.5426
MEAN_ANOMALY   = 123.0456

EPHEMERIS_TYPE = 0
CLASSIFICATION_TYPE = U
NORAD_CAT_ID   = 66188
ELEMENT_SET_NO = 999
REV_AT_EPOCH   = 516
BSTAR          = .14092E-2
MEAN_MOTION_DOT = .78571E-3
MEAN_MOTION_DDOT = 0

CCSDS_OMM_VERS = 2.0
CREATION_DATE  = 
ORIGINATOR     = 

OBJECT_NAME    = STARLINK-34694
OBJECT_ID      = 2025-243N
CENTER_NAME    = EARTH
REF_FRAME      = TEME
TIME_SYSTEM    = UTC
MEAN_ELEMENT_THEORY = SGP/SGP4

EPOCH          = 2025-11-21T04:00:01.998720
MEAN_MOTION    = 15.49257412
ECCENTRICITY   = .0001004
INCLINATION    = 53.1599
RA_OF_ASC_NODE = 29.9906
ARG_OF_PERICENTER = 75.6419
MEAN_ANOMALY   = 122.7761

EPHEMERIS_TYPE = 0
CLASSIFICATION_TYPE = U
NORAD_CAT_ID   = 66189
ELEMENT_SET_NO = 999
REV_AT_EPOCH   = 511
BSTAR          = .13989E-2
MEAN_MOTION_DOT = .7799E-3
MEAN_MOTION_DDOT = 0

CCSDS_OMM_VERS = 2.0
CREATION_DATE  = 
ORIGINATOR     = 

OBJECT_NAME    = STARLINK-34863
OBJECT_ID      = 2025-243P
CENTER_NAME    = EARTH
REF_FRAME      = TEME
TIME_SYSTEM    = UTC
MEAN_ELEMENT_THEORY = SGP/SGP4

EPOCH          = 2025-11-21T04:00:01.998720
MEAN_MOTION    = 15.49255124
ECCENTRICITY   = .0000989
INCLINATION    = 53.1599
RA_OF_ASC_NODE = 30.0057
ARG_OF_PERICENTER = 69.7998
MEAN_ANOMALY   = 120.9533

EPHEMERIS_TYPE = 0
CLASSIFICATION_TYPE = U
NORAD_CAT_ID   = 66190
ELEMENT_SET_NO = 999
REV_AT_EPOCH   = 511
BSTAR          = .14283E-2
MEAN_MOTION_DOT = .79649E-3
MEAN_MOTION_DDOT = 0

CCSDS_OMM_VERS = 2.0
CREATION_DATE  = 
ORIGINATOR     = 

OBJECT_NAME    = STARLINK-35061
OBJECT_ID      = 2025-243Q
CENTER_NAME    = EARTH
REF_FRAME      = TEME
TIME_SYSTEM    = UTC
MEAN_ELEMENT_THEORY = SGP/SGP4

EPOCH          = 2025-11-21T04:00:01.998720
MEAN_MOTION    = 15.49194859
ECCENTRICITY   = .000085
INCLINATION    = 53.1599
RA_OF_ASC_NODE = 29.9668
ARG_OF_PERICENTER = 84.2713
MEAN_ANOMALY   = 125.5350

EPHEMERIS_TYPE = 0
CLASSIFICATION_TYPE = U
NORAD_CAT_ID   = 66191
ELEMENT_SET_NO = 999
REV_AT_EPOCH   = 516
BSTAR          = .33479E-2
MEAN_MOTION_DOT = .189576E-2
MEAN_MOTION_DDOT = 0

CCSDS_OMM_VERS = 2.0
CREATION_DATE  = 
ORIGINATOR     = 

OBJECT_NAME    = STARLINK-34937
OBJECT_ID      = 2025-243R
CENTER_NAME    = EARTH
REF_FRAME      = TEME
TIME_SYSTEM    = UTC
MEAN_ELEMENT_THEORY = SGP/SGP4

EPOCH          = 2025-11-21T04:00:01.998720
MEAN_MOTION    = 15.49733594
ECCENTRICITY   = .0001425
INCLINATION    = 53.1598
RA_OF_ASC_NODE = 29.9698
ARG_OF_PERICENTER = 90.3990
MEAN_ANOMALY   = 117.5277

EPHEMERIS_TYPE = 0
CLASSIFICATION_TYPE = U
NORAD_CAT_ID   = 66192
ELEMENT_SET_NO = 999
REV_AT_EPOCH   = 490
BSTAR          = -.30505E-1
MEAN_MOTION_DOT = -.1554302E-1
MEAN_MOTION_DDOT = 0

CCSDS_OMM_VERS = 2.0
CREATION_DATE  = 
ORIGINATOR     = 

OBJECT_NAME    = STARLINK-35197
OBJECT_ID      = 2025-243S
CENTER_NAME    = EARTH
REF_FRAME      = TEME
TIME_SYSTEM    = UTC
MEAN_ELEMENT_THEORY = SGP/SGP4

EPOCH          = 2025-11-21T04:00:01.998720
MEAN_MOTION    = 15.49255615
ECCENTRICITY   = .000106
INCLINATION    = 53.1600
RA_OF_ASC_NODE = 29.9740
ARG_OF_PERICENTER = 72.4671
MEAN_ANOMALY   = 133.6210

EPHEMERIS_TYPE = 0
CLASSIFICATION_TYPE = U
NORAD_CAT_ID   = 66193
ELEMENT_SET_NO = 999
REV_AT_EPOCH   = 511
BSTAR          = .14107E-2
MEAN_MOTION_DOT = .78652E-3
MEAN_MOTION_DDOT = 0

CCSDS_OMM_VERS = 2.0
CREATION_DATE  = 
ORIGINATOR     = 

OBJECT_NAME    = STARLINK-35374
OBJECT_ID      = 2025-243T
CENTER_NAME    = EARTH
REF_FRAME      = TEME
TIME_SYSTEM    = UTC
MEAN_ELEMENT_THEORY = SGP/SGP4

EPOCH          = 2025-11-21T04:00:01.998720
MEAN_MOTION    = 15.49253821
ECCENTRICITY   = .0001035
INCLINATION    = 53.1599
RA_OF_ASC_NODE = 29.9781
ARG_OF_PERICENTER = 83.6224
MEAN_ANOMALY   = 120.5578

EPHEMERIS_TYPE = 0
CLASSIFICATION_TYPE = U
NORAD_CAT_ID   = 66194
ELEMENT_SET_NO = 999
REV_AT_EPOCH   = 511
BSTAR          = .14223E-2
MEAN_MOTION_DOT = .79304E-3
MEAN_MOTION_DDOT = 0

CCSDS_OMM_VERS = 2.0
CREATION_DATE  = 
ORIGINATOR     = 

OBJECT_NAME    = STARLINK-34813
OBJECT_ID      = 2025-243U
CENTER_NAME    = EARTH
REF_FRAME      = TEME
TIME_SYSTEM    = UTC
MEAN_ELEMENT_THEORY = SGP/SGP4

EPOCH          = 2025-11-21T04:00:01.998720
MEAN_MOTION    = 15.49255253
ECCENTRICITY   = .0001004
INCLINATION    = 53.1599
RA_OF_ASC_NODE = 29.9824
ARG_OF_PERICENTER = 78.8936
MEAN_ANOMALY   = 123.3624

EPHEMERIS_TYPE = 0
CLASSIFICATION_TYPE = U
NORAD_CAT_ID   = 66195
ELEMENT_SET_NO = 999
REV_AT_EPOCH   = 511
BSTAR          = .14129E-2
MEAN_MOTION_DOT = .78775E-3
MEAN_MOTION_DDOT = 0

CCSDS_OMM_VERS = 2.0
CREATION_DATE  = 
ORIGINATOR     = 

OBJECT_NAME    = STARLINK-35409
OBJECT_ID      = 2025-243V
CENTER_NAME    = EARTH
REF_FRAME      = TEME
TIME_SYSTEM    = UTC
MEAN_ELEMENT_THEORY = SGP/SGP4

EPOCH          = 2025-11-21T04:00:01.998720
MEAN_MOTION    = 15.49256723
ECCENTRICITY   = .0001049
INCLINATION    = 53.1598
RA_OF_ASC_NODE = 29.9867
ARG_OF_PERICENTER = 80.1216
MEAN_ANOMALY   = 120.2189

EPHEMERIS_TYPE = 0
CLASSIFICATION_TYPE = U
NORAD_CAT_ID   = 66196
ELEMENT_SET_NO = 999
REV_AT_EPOCH   = 511
BSTAR          = .13904E-2
MEAN_MOTION_DOT = .77505E-3
MEAN_MOTION_DDOT = 0

CCSDS_OMM_VERS = 2.0
CREATION_DATE  = 
ORIGINATOR     = 

OBJECT_NAME    = STARLINK-35518
OBJECT_ID      = 2025-243X
CENTER_NAME    = EARTH
REF_FRAME      = TEME
TIME_SYSTEM    = UTC
MEAN_ELEMENT_THEORY = SGP/SGP4

EPOCH          = 2025-11-21T04:00:01.998720
MEAN_MOTION    = 15.49253290
ECCENTRICITY   = .0000971
INCLINATION    = 53.1599
RA_OF_ASC_NODE = 29.9943
ARG_OF_PERICENTER = 73.7161
MEAN_ANOMALY   = 122.7897

EPHEMERIS_TYPE = 0
CLASSIFICATION_TYPE = U
NORAD_CAT_ID   = 66197
ELEMENT_SET_NO = 999
REV_AT_EPOCH   = 511
BSTAR          = .14608E-2
MEAN_MOTION_DOT = .81485E-3
MEAN_MOTION_DDOT = 0

CCSDS_OMM_VERS = 2.0
CREATION_DATE  = 
ORIGINATOR     = 

OBJECT_NAME    = STARLINK-35259
OBJECT_ID      = 2025-243W
CENTER_NAME    = EARTH
REF_FRAME      = TEME
TIME_SYSTEM    = UTC
MEAN_ELEMENT_THEORY = SGP/SGP4

EPOCH          = 2025-11-21T04:00:01.998720
MEAN_MOTION    = 15.47251621
ECCENTRICITY   = .0001552
INCLINATION    = 53.1602
RA_OF_ASC_NODE = 29.9168
ARG_OF_PERICENTER = 97.4967
MEAN_ANOMALY   = 135.6180

EPHEMERIS_TYPE = 0
CLASSIFICATION_TYPE = U
NORAD_CAT_ID   = 66198
ELEMENT_SET_NO = 999
REV_AT_EPOCH   = 511
BSTAR          = -.44508E-1
MEAN_MOTION_DOT = -.2050483E-1
MEAN_MOTION_DDOT = 0

