STARLINK-35350          
1 66187U 25243L   25325.16668980  .00082731  00000+0  14827-2 0  9999
2 66187  53.1599  30.0147 0000922  75.9252 111.0017 15.49253879  5111
STARLINK-35041          
1 66188U 25243M   25325.16668980  .00078571  00000+0  14092-2 0  9991
2 66188  53.1598  29.9988 0000998  71.5426 123.0456 15.49255270  5161
STARLINK-34694          
1 66189U 25243N   25325.16668980  .00077990  00000+0  13989-2 0  9990
2 66189  53.1599  29.9906 0001004  75.6419 122.7761 15.49257412  5119
STARLINK-34863          
1 66190U 25243P   25325.16668980  .00079649  00000+0  14283-2 0  9993
2 66190  53.1599  30.0057 0000989  69.7998 120.9533 15.49255124  5113
STARLINK-35061          
1 66191U 25243Q   25325.16668980  .00189576  00000+0  33479-2 0  9993
2 66191  53.1599  29.9668 0000850  84.2713 125.5350 15.49194859  5163
STARLINK-34937          
1 66192U 25243R   25325.16668980 -.01554302  00000+0 -30505-1 0  9996
2 66192  53.1598  29.9698 0001425  90.3990 117.5277 15.49733594  4905
STARLINK-35197          
1 66193U 25243S   25325.16668980  .00078652  00000+0  14107-2 0  9994
2 66193  53.1600  29.9740 0001060  72.4671 133.6210 15.49255615  5113
STARLINK-35374          
1 66194U 25243T   25325.16668980  .00079304  00000+0  14223-2 0  9999
2 66194  53.1599  29.9781 0001035  83.6224 120.5578 15.49253821  5115
STARLINK-34813          
1 66195U 25243U   25325.16668980  .00078775  00000+0  14129-2 0  9996
2 66195  53.1599  29.9824 0001004  78.8936 123.3624 15.49255253  5110
STARLINK-35409          
1 66196U 25243V   25325.16668980  .00077505  00000+0  13904-2 0  9997
2 66196  53.1598  29.9867 0001049  80.1216 120.2189 15.49256723  5118
STARLINK-35518          
1 66197U 25243X   25325.16668980  .00081485  00000+0  14608-2 0  9992
2 66197  53.1599  29.9943 0000971  73.7161 122.7897 15.49253290  5114
STARLINK-35259          
1 66198U 25243W   25325.16668980 -.02050483  00000+0 -44508-1 0  9992
2 66198  53.1602  29.9168 0001552  97.4967 135.6180 15.47251621  5114
